{
  "type": "FeatureCollection",
  "features": [
    {
      "type": "Feature",
      "properties": {
        "norad_id": 66939,
        "name": "STARLINK-36154",
        "group": "last-30-days",
        "lat": 39.750036305120936,
        "lon": 151.0460757814125,
        "alt_km": 337.6009884354753,
        "timestamp": "2025-12-20T20:38:43.174558+00:00",
        "meta_object_name": "STARLINK-36154",
        "meta_object_id": "2025-286Q",
        "meta_epoch": "2025-12-20T14:00:03.000384",
        "meta_mean_motion": 15.76297695,
        "meta_eccentricity": 7.272e-05,
        "meta_inclination": 53.1563,
        "meta_ra_of_asc_node": 11.0057,
        "meta_arg_of_pericenter": 82.4627,
        "meta_mean_anomaly": 272.8584,
        "meta_ephemeris_type": 0,
        "meta_classification_type": "U",
        "meta_norad_cat_id": 66939,
        "meta_element_set_no": 999,
        "meta_rev_at_epoch": 325,
        "meta_bstar": -0.0094056057,
        "meta_mean_motion_dot": -0.01347672,
        "meta_mean_motion_ddot": 0,
        "tle_line1": "1 66939U 25286Q   25354.58336806 -.01347672  00000+0 -94056-2 0  9991",
        "tle_line2": "2 66939  53.1563  11.0057 0000727  82.4627 272.8584 15.76297695  3250"
      },
      "geometry": {
        "type": "Point",
        "coordinates": [
          151.0460757814125,
          39.750036305120936
        ]
      }
    },
    {
      "type": "Feature",
      "properties": {
        "norad_id": 66940,
        "name": "STARLINK-36121",
        "group": "last-30-days",
        "lat": 38.49981942188792,
        "lon": 153.00742651133146,
        "alt_km": 338.0449839368757,
        "timestamp": "2025-12-20T20:38:43.174568+00:00",
        "meta_object_name": "STARLINK-36121",
        "meta_object_id": "2025-286R",
        "meta_epoch": "2025-12-20T14:00:03.000384",
        "meta_mean_motion": 15.76271844,
        "meta_eccentricity": 4.954e-05,
        "meta_inclination": 53.156,
        "meta_ra_of_asc_node": 11.0011,
        "meta_arg_of_pericenter": 79.6952,
        "meta_mean_anomaly": 277.6282,
        "meta_ephemeris_type": 0,
        "meta_classification_type": "U",
        "meta_norad_cat_id": 66940,
        "meta_element_set_no": 999,
        "meta_rev_at_epoch": 325,
        "meta_bstar": -0.0095547608,
        "meta_mean_motion_dot": -0.0136519,
        "meta_mean_motion_ddot": 0,
        "tle_line1": "1 66940U 25286R   25354.58336806 -.01365190  00000+0 -95548-2 0  9995",
        "tle_line2": "2 66940  53.1560  11.0011 0000495  79.6952 277.6282 15.76271844  3256"
      },
      "geometry": {
        "type": "Point",
        "coordinates": [
          153.00742651133146,
          38.49981942188792
        ]
      }
    },
    {
      "type": "Feature",
      "properties": {
        "norad_id": 66941,
        "name": "STARLINK-36088",
        "group": "last-30-days",
        "lat": 40.974550718570775,
        "lon": 148.9956701703585,
        "alt_km": 337.4168802832446,
        "timestamp": "2025-12-20T20:38:43.174578+00:00",
        "meta_object_name": "STARLINK-36088",
        "meta_object_id": "2025-286S",
        "meta_epoch": "2025-12-20T14:00:03.000384",
        "meta_mean_motion": 15.76380817,
        "meta_eccentricity": 6.461e-05,
        "meta_inclination": 53.1558,
        "meta_ra_of_asc_node": 11.0094,
        "meta_arg_of_pericenter": 73.3773,
        "meta_mean_anomaly": 279.9044,
        "meta_ephemeris_type": 0,
        "meta_classification_type": "U",
        "meta_norad_cat_id": 66941,
        "meta_element_set_no": 999,
        "meta_rev_at_epoch": 325,
        "meta_bstar": -0.010023769,
        "meta_mean_motion_dot": -0.01430751,
        "meta_mean_motion_ddot": 0,
        "tle_line1": "1 66941U 25286S   25354.58336806 -.01430751  00000+0 -10024-1 0  9997",
        "tle_line2": "2 66941  53.1558  11.0094 0000646  73.3773 279.9044 15.76380817  3257"
      },
      "geometry": {
        "type": "Point",
        "coordinates": [
          148.9956701703585,
          40.974550718570775
        ]
      }
    },
    {
      "type": "Feature",
      "properties": {
        "norad_id": 66942,
        "name": "STARLINK-36100",
        "group": "last-30-days",
        "lat": 37.20956764902309,
        "lon": 154.91315641982493,
        "alt_km": 338.21899156811287,
        "timestamp": "2025-12-20T20:38:43.174588+00:00",
        "meta_object_name": "STARLINK-36100",
        "meta_object_id": "2025-286T",
        "meta_epoch": "2025-12-20T14:00:03.000384",
        "meta_mean_motion": 15.76217991,
        "meta_eccentricity": 6.644e-05,
        "meta_inclination": 53.1559,
        "meta_ra_of_asc_node": 10.9965,
        "meta_arg_of_pericenter": 91.6206,
        "meta_mean_anomaly": 267.731,
        "meta_ephemeris_type": 0,
        "meta_classification_type": "U",
        "meta_norad_cat_id": 66942,
        "meta_element_set_no": 999,
        "meta_rev_at_epoch": 318,
        "meta_bstar": -0.0094003452,
        "meta_mean_motion_dot": -0.01342709,
        "meta_mean_motion_ddot": 0,
        "tle_line1": "1 66942U 25286T   25354.58336806 -.01342709  00000+0 -94003-2 0  9993",
        "tle_line2": "2 66942  53.1559  10.9965 0000664  91.6206 267.7310 15.76217991  3183"
      },
      "geometry": {
        "type": "Point",
        "coordinates": [
          154.91315641982493,
          37.20956764902309
        ]
      }
    },
    {
      "type": "Feature",
      "properties": {
        "norad_id": 66943,
        "name": "STARLINK-36109",
        "group": "last-30-days",
        "lat": 35.85717122678285,
        "lon": 156.79890051831345,
        "alt_km": 338.78300063463575,
        "timestamp": "2025-12-20T20:38:43.174600+00:00",
        "meta_object_name": "STARLINK-36109",
        "meta_object_id": "2025-286U",
        "meta_epoch": "2025-12-20T14:00:03.000384",
        "meta_mean_motion": 15.76165578,
        "meta_eccentricity": 6.582e-05,
        "meta_inclination": 53.1561,
        "meta_ra_of_asc_node": 10.9922,
        "meta_arg_of_pericenter": 80.8169,
        "meta_mean_anomaly": 280.6361,
        "meta_ephemeris_type": 0,
        "meta_classification_type": "U",
        "meta_norad_cat_id": 66943,
        "meta_element_set_no": 999,
        "meta_rev_at_epoch": 318,
        "meta_bstar": -0.0098917423,
        "meta_mean_motion_dot": -0.01402083,
        "meta_mean_motion_ddot": 0,
        "tle_line1": "1 66943U 25286U   25354.58336806 -.01402083  00000+0 -98917-2 0  9994",
        "tle_line2": "2 66943  53.1561  10.9922 0000658  80.8169 280.6361 15.76165578  3184"
      },
      "geometry": {
        "type": "Point",
        "coordinates": [
          156.79890051831345,
          35.85717122678285
        ]
      }
    },
    {
      "type": "Feature",
      "properties": {
        "norad_id": 66944,
        "name": "STARLINK-36112",
        "group": "last-30-days",
        "lat": 34.52375242299919,
        "lon": 158.55921319294814,
        "alt_km": 339.0717912041682,
        "timestamp": "2025-12-20T20:38:43.174610+00:00",
        "meta_object_name": "STARLINK-36112",
        "meta_object_id": "2025-286V",
        "meta_epoch": "2025-12-20T14:00:03.000384",
        "meta_mean_motion": 15.76137571,
        "meta_eccentricity": 6.567e-05,
        "meta_inclination": 53.156,
        "meta_ra_of_asc_node": 10.9883,
        "meta_arg_of_pericenter": 86.7163,
        "meta_mean_anomaly": 276.731,
        "meta_ephemeris_type": 0,
        "meta_classification_type": "U",
        "meta_norad_cat_id": 66944,
        "meta_element_set_no": 999,
        "meta_rev_at_epoch": 325,
        "meta_bstar": -0.010011317,
        "meta_mean_motion_dot": -0.01415534,
        "meta_mean_motion_ddot": 0,
        "tle_line1": "1 66944U 25286V   25354.58336806 -.01415534  00000+0 -10011-1 0  9998",
        "tle_line2": "2 66944  53.1560  10.9883 0000656  86.7163 276.7310 15.76137571  3257"
      },
      "geometry": {
        "type": "Point",
        "coordinates": [
          158.55921319294814,
          34.52375242299919
        ]
      }
    },
    {
      "type": "Feature",
      "properties": {
        "norad_id": 66945,
        "name": "STARLINK-36110",
        "group": "last-30-days",
        "lat": 33.11977807849801,
        "lon": 160.3192034576731,
        "alt_km": 339.4578808588576,
        "timestamp": "2025-12-20T20:38:43.174620+00:00",
        "meta_object_name": "STARLINK-36110",
        "meta_object_id": "2025-286W",
        "meta_epoch": "2025-12-20T14:00:03.000384",
        "meta_mean_motion": 15.76044861,
        "meta_eccentricity": 8.886e-05,
        "meta_inclination": 53.1559,
        "meta_ra_of_asc_node": 10.9837,
        "meta_arg_of_pericenter": 71.0837,
        "meta_mean_anomaly": 294.444,
        "meta_ephemeris_type": 0,
        "meta_classification_type": "U",
        "meta_norad_cat_id": 66945,
        "meta_element_set_no": 999,
        "meta_rev_at_epoch": 325,
        "meta_bstar": -0.0092317186,
        "meta_mean_motion_dot": -0.01312202,
        "meta_mean_motion_ddot": 0,
        "tle_line1": "1 66945U 25286W   25354.58336806 -.01312202  00000+0 -92317-2 0  9997",
        "tle_line2": "2 66945  53.1559  10.9837 0000888  71.0837 294.4440 15.76044861  3257"
      },
      "geometry": {
        "type": "Point",
        "coordinates": [
          160.3192034576731,
          33.11977807849801
        ]
      }
    }
  ]
}